IRIDIUM 38              
1 25043U 97069E   25193.49568972  .00000268  00000+0  81957-4 0  9994
2 25043  86.3948 222.5096 0003385  56.8282 303.3241 14.38132172449599
IRIDIUM 42              
1 25077U 97077A   25193.53297485  .00000268  00000+0  84968-4 0  9998
2 25077  86.3950 228.6942 0002784  77.8464 282.3045 14.36366348444835
IRIDIUM 44              
1 25078U 97077B   25193.48850255  .00000246  00000+0  71404-4 0  9990
2 25078  86.3960 210.5756 0001339  34.8293 325.2994 14.40255661447347
IRIDIUM 45              
1 25104U 97082A   25193.48887432  .00010363  00000+0  36716-3 0  9990
2 25104  86.3561  35.5961 0113344 236.1389 122.9031 15.22947810455898
IRIDIUM 24              
1 25105U 97082B   25193.63719450  .00000370  00000+0  10649-3 0  9996
2 25105  86.3881  69.5041 0011545   5.0757 355.0558 14.42117686446885
IRIDIUM 51              
1 25262U 98018A   25193.56216316  .00027468  00000+0  58195-3 0  9990
2 25262  86.3803  43.2525 0085409 151.1657 209.4358 15.41024287450936
